NORAD_CAT_ID,OBJECT_NAME,OBJECT_TYPE,EPOCH,MEAN_MOTION,ECCENTRICITY,INCLINATION,RA_OF_ASC_NODE,ARG_OF_PERICENTER,MEAN_ANOMALY,BSTAR,MEAN_MOTION_DOT,MEAN_MOTION_DDOT,TLE_LINE0,TLE_LINE1,TLE_LINE2,SEMIMAJOR_AXIS,PERIOD,APOGEE,PERIGEE,DECAYED
52882.0,STARLINK-4181,PAYLOAD,2023-10-19 19:09:10,15.08848241,0.0001689,53.2163,328.2428,83.914,276.2045,0.00018395,2.641e-05,0.0,0 STARLINK-4181,1 52882U 22062BE  23292.79804145  .00002641  00000-0  18395-3 0  9995,2 52882  53.2163 328.2428 0001689  83.9140 276.2045 15.08848241 74441,6917.855,95.437,540.889,538.552,0.0
52882.0,STARLINK-4181,PAYLOAD,2023-10-20 07:52:16,15.08834588,0.0001623,53.2168,325.8637,95.7311,264.3867,-9.7289e-05,-1.836e-05,0.0,0 STARLINK-4181,1 52882U 22062BE  23293.32796638 -.00001836  00000-0 -97289-4 0  9999,2 52882  53.2168 325.8637 0001623  95.7311 264.3867 15.08834588 75013,6917.897,95.438,540.885,538.639,0.0
52882.0,STARLINK-4181,PAYLOAD,2023-10-21 09:18:26,15.08840722,0.0001635,53.2176,321.1087,102.8337,257.2838,0.00015964,2.254e-05,0.0,0 STARLINK-4181,1 52882U 22062BE  23294.38780966  .00002254  00000-0  15964-3 0  9995,2 52882  53.2176 321.1087 0001635 102.8337 257.2838 15.08840722 75174,6917.878,95.438,540.874,538.612,0.0
52882.0,STARLINK-4181,PAYLOAD,2023-10-21 18:50:45,15.08845077,0.000149,53.2171,319.325,97.377,262.7391,0.00020943,3.047e-05,0.0,0 STARLINK-4181,1 52882U 22062BE  23294.78524854  .00003047  00000-0  20943-3 0  9995,2 52882  53.2171 319.3250 0001490  97.3770 262.7391 15.08845077 74743,6917.865,95.437,540.761,538.699,0.0
52882.0,STARLINK-4181,PAYLOAD,2023-10-22 10:44:36,15.08846944,0.0001687,53.2174,316.3501,90.087,270.0315,0.0002996,4.484e-05,0.0,0 STARLINK-4181,1 52882U 22062BE  23295.44765012  .00004484  00000-0  29960-3 0  9996,2 52882  53.2174 316.3501 0001687  90.0870 270.0315 15.08846944 75339,6917.859,95.437,540.891,538.557,0.0
52882.0,STARLINK-4181,PAYLOAD,2023-10-22 18:41:33,15.08837538,0.0001794,53.2175,314.8638,84.4824,275.6373,8.8682e-05,1.123e-05,0.0,0 STARLINK-4181,1 52882U 22062BE  23295.77885441  .00001123  00000-0  88682-4 0  9995,2 52882  53.2175 314.8638 0001794  84.4824 275.6373 15.08837538 75388,6917.888,95.438,540.994,538.512,0.0
52882.0,STARLINK-4181,PAYLOAD,2023-10-23 18:32:20,15.08840284,0.0001642,53.2166,310.4026,88.5866,271.5315,0.00011915,1.609e-05,0.0,0 STARLINK-4181,1 52882U 22062BE  23296.77245552  .00001609  00000-0  11915-3 0  9992,2 52882  53.2166 310.4026 0001642  88.5866 271.5315 15.08840284 75040,6917.88,95.438,540.88,538.609,0.0
52882.0,STARLINK-4181,PAYLOAD,2023-10-24 00:53:52,15.0884217,0.0001703,53.2163,309.2138,86.5717,273.547,0.0002034,2.951e-05,0.0,0 STARLINK-4181,1 52882U 22062BE  23297.03741629  .00002951  00000-0  20340-3 0  9991,2 52882  53.2163 309.2138 0001703  86.5717 273.5470 15.08842170 75576,6917.874,95.437,540.917,538.561,0.0
52882.0,STARLINK-4181,PAYLOAD,2023-10-24 07:15:25,15.0884876,0.0001719,53.2162,308.0232,91.2875,268.8314,0.00033722,5.084e-05,0.0,0 STARLINK-4181,1 52882U 22062BE  23297.30237399  .00005084  00000-0  33722-3 0  9993,2 52882  53.2162 308.0232 0001719  91.2875 268.8314 15.08848760 75128,6917.854,95.437,540.908,538.529,0.0
52882.0,STARLINK-4181,PAYLOAD,2023-10-25 07:06:11,15.08864889,0.0001834,53.2158,303.563,92.713,267.4072,0.00052479,8.079e-05,0.0,0 STARLINK-4181,1 52882U 22062BE  23298.29596361  .00008079  00000-0  52479-3 0  9996,2 52882  53.2158 303.5630 0001834  92.7130 267.4072 15.08864889 75769,6917.804,95.436,540.938,538.401,0.0
52882.0,STARLINK-4181,PAYLOAD,2023-10-26 03:46:12,15.08843015,0.0001647,53.2158,299.6965,110.4756,249.6413,6.8448e-05,8.02e-06,0.0,0 STARLINK-4181,1 52882U 22062BE  23299.15708737  .00000802  00000-0  68448-4 0  9994,2 52882  53.2158 299.6965 0001647 110.4756 249.6413 15.08843015 75892,6917.871,95.437,540.876,538.597,0.0
52882.0,STARLINK-4181,PAYLOAD,2023-10-26 10:07:45,15.08835856,0.000148,53.2158,298.5075,92.9826,267.1336,3.4203e-05,2.56e-06,0.0,0 STARLINK-4181,1 52882U 22062BE  23299.42205111  .00000256  00000-0  34203-4 0  9997,2 52882  53.2158 298.5075 0001480  92.9826 267.1336 15.08835856 75937,6917.893,95.438,540.782,538.734,0.0
52882.0,STARLINK-4181,PAYLOAD,2023-10-27 06:47:45,15.08850679,0.0001417,53.2151,294.6427,94.5247,265.5907,0.00049795,7.648e-05,0.0,0 STARLINK-4181,1 52882U 22062BE  23300.28317065  .00007648  00000-0  49795-3 0  9999,2 52882  53.2151 294.6427 0001417  94.5247 265.5907 15.08850679 76064,6917.848,95.437,540.693,538.732,0.0
52882.0,STARLINK-4181,PAYLOAD,2023-10-27 16:20:05,15.08842851,0.0001411,53.2156,292.8583,85.0896,275.0257,0.00039177,5.953e-05,0.0,0 STARLINK-4181,1 52882U 22062BE  23300.68061405  .00005953  00000-0  39177-3 0  9997,2 52882  53.2156 292.8583 0001411  85.0896 275.0257 15.08842851 76125,6917.872,95.437,540.713,538.761,0.0
52882.0,STARLINK-4181,PAYLOAD,2023-10-28 06:38:33,15.08832991,0.0001625,53.2156,290.1843,101.1691,258.9484,2.3401e-05,8.4e-07,0.0,0 STARLINK-4181,1 52882U 22062BE  23301.27677578  .00000084  00000-0  23401-4 0  9991,2 52882  53.2156 290.1843 0001625 101.1691 258.9484 15.08832991 76211,6917.902,95.438,540.891,538.643,0.0
52882.0,STARLINK-4181,PAYLOAD,2023-10-28 22:32:24,15.08840675,0.0001588,53.2167,287.2098,98.6201,261.4971,0.00013754,1.902e-05,0.0,0 STARLINK-4181,1 52882U 22062BE  23301.93917671  .00001902  00000-0  13754-3 0  9994,2 52882  53.2167 287.2098 0001588  98.6201 261.4971 15.08840675 75821,6917.878,95.438,540.842,538.645,0.0
52882.0,STARLINK-4181,PAYLOAD,2023-10-29 08:04:43,15.08851135,0.0001514,53.2152,285.4235,98.666,261.4503,0.00027904,4.157e-05,0.0,0 STARLINK-4181,1 52882U 22062BE  23302.33661269  .00004157  00000-0  27904-3 0  9995,2 52882  53.2152 285.4235 0001514  98.6660 261.4503 15.08851135 76371,6917.846,95.437,540.759,538.664,0.0
52882.0,STARLINK-4181,PAYLOAD,2023-10-29 16:01:39,15.08841012,0.0001687,53.216,283.933,88.1569,271.9616,8.373e-05,1.045e-05,0.0,0 STARLINK-4181,1 52882U 22062BE  23302.66781619  .00001045  00000-0  83730-4 0  9996,2 52882  53.2160 283.9330 0001687  88.1569 271.9616 15.08841012 76422,6917.877,95.437,540.909,538.575,0.0
52882.0,STARLINK-4181,PAYLOAD,2023-10-29 22:23:12,15.088403,0.0002065,53.2154,282.7478,86.7027,273.4201,0.00018821,2.708e-05,0.0,0 STARLINK-4181,1 52882U 22062BE  23302.93278065  .00002708  00000-0  18821-3 0  9997,2 52882  53.2154 282.7478 0002065  86.7027 273.4201 15.08840300 75974,6917.879,95.438,541.173,538.316,0.0
52882.0,STARLINK-4181,PAYLOAD,2023-10-30 04:44:43,15.08866861,0.0001648,53.2155,281.5576,81.8967,278.2212,0.00051387,7.906e-05,0.0,0 STARLINK-4181,1 52882U 22062BE  23303.19772775  .00007906  00000-0  51387-3 0  9992,2 52882  53.2155 281.5576 0001648  81.8967 278.2212 15.08866861 76501,6917.798,95.436,540.803,538.523,0.0
52882.0,STARLINK-4181,PAYLOAD,2023-10-30 07:55:29,15.0887774,0.0001624,53.2155,280.9631,114.883,245.2331,0.00077742,0.00012119,0.0,0 STARLINK-4181,1 52882U 22062BE  23303.33020145  .00012119  00000-0  77742-3 0  9990,2 52882  53.2155 280.9631 0001624 114.8830 245.2331 15.08877740 76522,6917.765,95.435,540.753,538.507,0.0
52882.0,STARLINK-4181,PAYLOAD,2023-10-30 15:52:26,15.08840454,0.0002328,53.2156,279.476,79.6345,280.491,8.7185e-05,1.1e-05,0.0,0 STARLINK-4181,1 52882U 22062BE  23303.66142031  .00001100  00000-0  87185-4 0  9996,2 52882  53.2156 279.4760 0002328  79.6345 280.4910 15.08840454 76571,6917.879,95.438,541.354,538.134,0.0
52882.0,STARLINK-4181,PAYLOAD,2023-10-30 22:13:59,15.08823287,0.0001668,53.2152,278.2857,81.195,278.9231,-0.00021235,-3.664e-05,0.0,0 STARLINK-4181,1 52882U 22062BE  23303.92638505 -.00003664  00000-0 -21235-3 0  9993,2 52882  53.2152 278.2857 0001668  81.1950 278.9231 15.08823287 76121,6917.931,95.439,540.95,538.643,0.0
52882.0,STARLINK-4181,PAYLOAD,2023-10-31 04:35:32,15.08830295,0.0001677,53.2154,277.095,86.0625,274.0558,-6.5163e-05,-1.325e-05,0.0,0 STARLINK-4181,1 52882U 22062BE  23304.19134347 -.00001325  00000-0 -65163-4 0  9999,2 52882  53.2154 277.0950 0001677  86.0625 274.0558 15.08830295 76651,6917.91,95.438,540.935,538.615,0.0
52882.0,STARLINK-4181,PAYLOAD,2023-10-31 22:04:46,15.08843663,0.0001862,53.2158,273.8252,77.5324,282.5876,0.00058173,8.983e-05,0.0,0 STARLINK-4181,1 52882U 22062BE  23304.91998601  .00008983  00000-0  58173-3 0  9997,2 52882  53.2158 273.8252 0001862  77.5324 282.5876 15.08843663 76279,6917.869,95.437,541.022,538.446,0.0
52882.0,STARLINK-4181,PAYLOAD,2023-11-01 04:26:19,15.08859381,0.0001864,53.2155,272.6355,78.652,281.4681,0.0013369,0.00021064,0.0,0 STARLINK-4181,1 52882U 22062BE  23305.18494467  .00021064  00000-0  13369-2 0  9990,2 52882  53.2155 272.6355 0001864  78.6520 281.4681 15.08859381 76804,6917.821,95.436,540.976,538.397,0.0
52882.0,STARLINK-4181,PAYLOAD,2023-11-01 07:37:05,15.08867049,0.0001902,53.2156,272.0412,78.4281,281.6924,0.0015112,0.00023863,0.0,0 STARLINK-4181,1 52882U 22062BE  23305.31742253  .00023863  00000-0  15112-2 0  9991,2 52882  53.2156 272.0412 0001902  78.4281 281.6924 15.08867049 76338,6917.798,95.436,540.978,538.347,0.0
52882.0,STARLINK-4181,PAYLOAD,2023-11-01 15:34:01,15.08854034,0.0002093,53.2175,270.5537,88.5173,271.6059,0.00073738,0.00011471,0.0,0 STARLINK-4181,1 52882U 22062BE  23305.64862359  .00011471  00000-0  73738-3 0  9998,2 52882  53.2175 270.5537 0002093  88.5173 271.6059 15.08854034 76871,6917.837,95.437,541.15,538.255,0.0
52882.0,STARLINK-4181,PAYLOAD,2023-11-01 21:55:33,15.08858211,0.0002655,53.2155,269.3644,89.8812,270.2484,0.0010799,0.00016949,0.0,0 STARLINK-4181,1 52882U 22062BE  23305.91358347  .00016949  00000-0  10799-2 0  9997,2 52882  53.2155 269.3644 0002655  89.8812 270.2484 15.08858211 76421,6917.825,95.436,541.526,537.853,0.0
52882.0,STARLINK-4181,PAYLOAD,2023-11-02 04:17:05,15.0885614,0.0002059,53.2166,268.1755,92.3165,267.8063,0.00059137,9.14e-05,0.0,0 STARLINK-4181,1 52882U 22062BE  23306.17854082  .00009140  00000-0  59137-3 0  9998,2 52882  53.2166 268.1755 0002059  92.3165 267.8063 15.08856140 76953,6917.831,95.437,541.12,538.272,0.0
